start=new Date('2022-05-19T00:00:00.000Z').valueOf();
sats=[{"CENTER_NAME":"EARTH","FILE":"3452356","MEAN_ELEMENT_THEORY":"SGP4","REV_AT_EPOCH":"130","RCS_SIZE":"LARGE","TIME_SYSTEM":"UTC","NORAD_CAT_ID":"49142","MEAN_MOTION":"15.01545843","ELEMENT_SET_NO":"999","SITE":"AFWTR","OBJECT_TYPE":"PAYLOAD","PERIAPSIS":"559.717","MEAN_MOTION_DOT":"0.00073842","GP_ID":"203906801","SEMIMAJOR_AXIS":"6940.266","REF_FRAME":"TEME","LAUNCH_DATE":"2021-09-14","APOAPSIS":"564.545","OBJECT_ID":"2021-082N","CLASSIFICATION_TYPE":"U","INCLINATION":"70.0014","BSTAR":"0.00563870000000","EPHEMERIS_TYPE":"0","TLE_LINE1":"1 49142U 21082N   22138.91667824  .00073842  00000-0  56387-2 0  9997","PERIOD":"95.901","COUNTRY_CODE":"US","MEAN_ANOMALY":"64.8876","ECCENTRICITY":"0.00034780","EPOCH":"2022-05-18T22:00:00.999936","RA_OF_ASC_NODE":"160.2601","ARG_OF_PERICENTER":"279.0026","MEAN_MOTION_DDOT":"0.0000000000000","TLE_LINE2":"2 49142  70.0014 160.2601 0003478 279.0026  64.8876 15.01545843  1307","OBJECT_NAME":"STARLINK-3042","DECAY_DATE":null},{"OBJECT_TYPE":"PAYLOAD","SITE":"AFWTR","ELEMENT_SET_NO":"999","MEAN_MOTION":"14.96754841","APOAPSIS":"579.231","LAUNCH_DATE":"2021-09-14","REF_FRAME":"TEME","SEMIMAJOR_AXIS":"6955.068","GP_ID":"203920689","PERIAPSIS":"574.635","MEAN_MOTION_DOT":"-0.00085196","MEAN_ELEMENT_THEORY":"SGP4","FILE":"3452846","CENTER_NAME":"EARTH","NORAD_CAT_ID":"49143","TIME_SYSTEM":"UTC","RCS_SIZE":"LARGE","REV_AT_EPOCH":"3821","ARG_OF_PERICENTER":"271.4362","RA_OF_ASC_NODE":"179.6154","EPOCH":"2022-05-19T06:00:00.999648","ECCENTRICITY":"0.00033040","DECAY_DATE":null,"OBJECT_NAME":"STARLINK-3109","MEAN_MOTION_DDOT":"0.0000000000000","TLE_LINE2":"2 49143  69.9993 179.6154 0003304 271.4362 224.5240 14.96754841 38218","BSTAR":"-0.00751870000000","INCLINATION":"69.9993","CLASSIFICATION_TYPE":"U","OBJECT_ID":"2021-082P","MEAN_ANOMALY":"224.5240","COUNTRY_CODE":"US","PERIOD":"96.208","TLE_LINE1":"1 49143U 21082P   22139.25001157 -.00085196  00000-0 -75187-2 0  9993","EPHEMERIS_TYPE":"0"},{"CENTER_NAME":"EARTH","FILE":"3452356","MEAN_ELEMENT_THEORY":"SGP4","REV_AT_EPOCH":"130","TIME_SYSTEM":"UTC","RCS_SIZE":"LARGE","NORAD_CAT_ID":"49144","MEAN_MOTION":"14.98335365","ELEMENT_SET_NO":"999","SITE":"AFWTR","OBJECT_TYPE":"PAYLOAD","GP_ID":"203907304","PERIAPSIS":"569.753","MEAN_MOTION_DOT":"-0.00036440","REF_FRAME":"TEME","SEMIMAJOR_AXIS":"6950.176","LAUNCH_DATE":"2021-09-14","APOAPSIS":"574.330","CLASSIFICATION_TYPE":"U","OBJECT_ID":"2021-082Q","INCLINATION":"70.0004","BSTAR":"-0.00306160000000","EPHEMERIS_TYPE":"0","COUNTRY_CODE":"US","TLE_LINE1":"1 49144U 21082Q   22138.91667824 -.00036440  00000-0 -30616-2 0  9991","PERIOD":"96.107","MEAN_ANOMALY":"216.9105","ECCENTRICITY":"0.00032930","EPOCH":"2022-05-18T22:00:00.999936","RA_OF_ASC_NODE":"201.0891","ARG_OF_PERICENTER":"275.3735","TLE_LINE2":"2 49144  70.0004 201.0891 0003293 275.3735 216.9105 14.98335365  1300","MEAN_MOTION_DDOT":"0.0000000000000","DECAY_DATE":null,"OBJECT_NAME":"STARLINK-3100"},{"MEAN_MOTION":"15.01536574","ELEMENT_SET_NO":"999","SITE":"AFWTR","OBJECT_TYPE":"PAYLOAD","PERIAPSIS":"559.976","MEAN_MOTION_DOT":"0.00071673","GP_ID":"203906052","SEMIMAJOR_AXIS":"6940.294","REF_FRAME":"TEME","APOAPSIS":"564.343","LAUNCH_DATE":"2021-09-14","CENTER_NAME":"EARTH","FILE":"3452356","MEAN_ELEMENT_THEORY":"SGP4","REV_AT_EPOCH":"130","RCS_SIZE":"LARGE","TIME_SYSTEM":"UTC","NORAD_CAT_ID":"49145","ECCENTRICITY":"0.00031460","EPOCH":"2022-05-18T22:00:00.999936","RA_OF_ASC_NODE":"160.3433","ARG_OF_PERICENTER":"271.6855","TLE_LINE2":"2 49145  69.9965 160.3433 0003146 271.6855 118.8181 15.01536574  1306","MEAN_MOTION_DDOT":"0.0000000000000","OBJECT_NAME":"STARLINK-3119","DECAY_DATE":null,"OBJECT_ID":"2021-082R","CLASSIFICATION_TYPE":"U","INCLINATION":"69.9965","BSTAR":"0.00547640000000","EPHEMERIS_TYPE":"0","PERIOD":"95.902","TLE_LINE1":"1 49145U 21082R   22138.91667824  .00071673  00000-0  54764-2 0  9997","COUNTRY_CODE":"US","MEAN_ANOMALY":"118.8181"},{"CENTER_NAME":"EARTH","FILE":"3452356","MEAN_ELEMENT_THEORY":"SGP4","REV_AT_EPOCH":"130","RCS_SIZE":"LARGE","TIME_SYSTEM":"UTC","NORAD_CAT_ID":"49146","MEAN_MOTION":"14.96697596","ELEMENT_SET_NO":"999","SITE":"AFWTR","OBJECT_TYPE":"PAYLOAD","PERIAPSIS":"574.846","MEAN_MOTION_DOT":"0.00014760","GP_ID":"203906302","SEMIMAJOR_AXIS":"6955.246","REF_FRAME":"TEME","LAUNCH_DATE":"2021-09-14","APOAPSIS":"579.375","OBJECT_ID":"2021-082S","CLASSIFICATION_TYPE":"U","INCLINATION":"69.9985","BSTAR":"0.00129540000000","EPHEMERIS_TYPE":"0","TLE_LINE1":"1 49146U 21082S   22138.91667824  .00014760  00000-0  12954-2 0  9997","PERIOD":"96.212","COUNTRY_CODE":"US","MEAN_ANOMALY":"252.1711","ECCENTRICITY":"0.00032560","EPOCH":"2022-05-18T22:00:00.999936","RA_OF_ASC_NODE":"180.4472","ARG_OF_PERICENTER":"274.3957","MEAN_MOTION_DDOT":"0.0000000000000","TLE_LINE2":"2 49146  69.9985 180.4472 0003256 274.3957 252.1711 14.96697596  1306","OBJECT_NAME":"STARLINK-3116","DECAY_DATE":null},{"CENTER_NAME":"EARTH","MEAN_ELEMENT_THEORY":"SGP4","FILE":"3452549","REV_AT_EPOCH":"3988","NORAD_CAT_ID":"49147","RCS_SIZE":"LARGE","TIME_SYSTEM":"UTC","ELEMENT_SET_NO":"999","MEAN_MOTION":"15.01554596","OBJECT_TYPE":"PAYLOAD","SITE":"AFWTR","MEAN_MOTION_DOT":"0.00009986","PERIAPSIS":"559.765","GP_ID":"203912922","LAUNCH_DATE":"2021-09-14","APOAPSIS":"564.443","SEMIMAJOR_AXIS":"6940.239","REF_FRAME":"TEME","INCLINATION":"70.0004","OBJECT_ID":"2021-082T","CLASSIFICATION_TYPE":"U","BSTAR":"0.00077573000000","EPHEMERIS_TYPE":"0","MEAN_ANOMALY":"84.1347","PERIOD":"95.901","TLE_LINE1":"1 49147U 21082T   22139.25001157  .00009986  00000-0  77573-3 0  9990","COUNTRY_CODE":"US","EPOCH":"2022-05-19T06:00:00.999648","ECCENTRICITY":"0.00033700","ARG_OF_PERICENTER":"282.3316","RA_OF_ASC_NODE":"159.4176","TLE_LINE2":"2 49147  70.0004 159.4176 0003370 282.3316  84.1347 15.01554596 39885","MEAN_MOTION_DDOT":"0.0000000000000","OBJECT_NAME":"STARLINK-3071","DECAY_DATE":null},{"MEAN_MOTION_DDOT":"0.0000000000000","TLE_LINE2":"2 49148  69.9995 180.4472 0003319 272.9136 279.8027 14.96709532  1302","OBJECT_NAME":"STARLINK-3048","DECAY_DATE":null,"ECCENTRICITY":"0.00033190","EPOCH":"2022-05-18T22:00:00.999936","RA_OF_ASC_NODE":"180.4472","ARG_OF_PERICENTER":"272.9136","EPHEMERIS_TYPE":"0","TLE_LINE1":"1 49148U 21082U   22138.91667824  .00001121  00000-0  10596-3 0  9997","PERIOD":"96.211","COUNTRY_CODE":"US","MEAN_ANOMALY":"279.8027","OBJECT_ID":"2021-082U","CLASSIFICATION_TYPE":"U","INCLINATION":"69.9995","BSTAR":"0.00010596000000","PERIAPSIS":"574.765","MEAN_MOTION_DOT":"0.00001121","GP_ID":"203907804","SEMIMAJOR_AXIS":"6955.209","REF_FRAME":"TEME","APOAPSIS":"579.382","LAUNCH_DATE":"2021-09-14","MEAN_MOTION":"14.96709532","ELEMENT_SET_NO":"999","SITE":"AFWTR","OBJECT_TYPE":"PAYLOAD","REV_AT_EPOCH":"130","RCS_SIZE":"LARGE","TIME_SYSTEM":"UTC","NORAD_CAT_ID":"49148","CENTER_NAME":"EARTH","FILE":"3452356","MEAN_ELEMENT_THEORY":"SGP4"},{"ECCENTRICITY":"0.00032910","EPOCH":"2022-05-19T06:00:00.999648","RA_OF_ASC_NODE":"200.2332","ARG_OF_PERICENTER":"278.6455","TLE_LINE2":"2 49149  69.9996 200.2332 0003291 278.6455 236.8183 14.98349172 38911","MEAN_MOTION_DDOT":"0.0000000000000","OBJECT_NAME":"STARLINK-3053","DECAY_DATE":null,"OBJECT_ID":"2021-082V","CLASSIFICATION_TYPE":"U","INCLINATION":"69.9996","BSTAR":"-0.00176190000000","EPHEMERIS_TYPE":"0","TLE_LINE1":"1 49149U 21082V   22139.25001157 -.00021064  00000-0 -17619-2 0  9999","PERIOD":"96.106","COUNTRY_CODE":"US","MEAN_ANOMALY":"236.8183","MEAN_MOTION":"14.98349172","ELEMENT_SET_NO":"999","SITE":"AFWTR","OBJECT_TYPE":"PAYLOAD","MEAN_MOTION_DOT":"-0.00021064","PERIAPSIS":"569.711","GP_ID":"203908919","SEMIMAJOR_AXIS":"6950.134","REF_FRAME":"TEME","LAUNCH_DATE":"2021-09-14","APOAPSIS":"574.286","CENTER_NAME":"EARTH","FILE":"3452390","MEAN_ELEMENT_THEORY":"SGP4","REV_AT_EPOCH":"3891","RCS_SIZE":"LARGE","TIME_SYSTEM":"UTC","NORAD_CAT_ID":"49149"},{"SITE":"AFWTR","OBJECT_TYPE":"PAYLOAD","MEAN_MOTION":"14.98340826","ELEMENT_SET_NO":"999","SEMIMAJOR_AXIS":"6950.159","REF_FRAME":"TEME","APOAPSIS":"574.313","LAUNCH_DATE":"2021-09-14","MEAN_MOTION_DOT":"-0.00022306","PERIAPSIS":"569.736","GP_ID":"203908899","FILE":"3452393","MEAN_ELEMENT_THEORY":"SGP4","CENTER_NAME":"EARTH","RCS_SIZE":"LARGE","TIME_SYSTEM":"UTC","NORAD_CAT_ID":"49150","REV_AT_EPOCH":"3891","RA_OF_ASC_NODE":"200.2356","ARG_OF_PERICENTER":"279.4213","ECCENTRICITY":"0.00032930","EPOCH":"2022-05-19T06:00:00.999648","OBJECT_NAME":"STARLINK-3104","DECAY_DATE":null,"TLE_LINE2":"2 49150  70.0013 200.2356 0003293 279.4213 261.7704 14.98340826 38918","MEAN_MOTION_DDOT":"0.0000000000000","BSTAR":"-0.00186700000000","OBJECT_ID":"2021-082W","CLASSIFICATION_TYPE":"U","INCLINATION":"70.0013","TLE_LINE1":"1 49150U 21082W   22139.25001157 -.00022306  00000-0 -18670-2 0  9999","PERIOD":"96.106","COUNTRY_CODE":"US","MEAN_ANOMALY":"261.7704","EPHEMERIS_TYPE":"0"},{"OBJECT_TYPE":"PAYLOAD","SITE":"AFWTR","ELEMENT_SET_NO":"999","MEAN_MOTION":"15.01535887","APOAPSIS":"564.320","LAUNCH_DATE":"2021-09-14","REF_FRAME":"TEME","SEMIMAJOR_AXIS":"6940.297","GP_ID":"203876146","MEAN_MOTION_DOT":"0.00067850","PERIAPSIS":"560.003","MEAN_ELEMENT_THEORY":"SGP4","FILE":"3452054","CENTER_NAME":"EARTH","NORAD_CAT_ID":"49151","TIME_SYSTEM":"UTC","RCS_SIZE":"LARGE","REV_AT_EPOCH":"3986","ARG_OF_PERICENTER":"277.9403","RA_OF_ASC_NODE":"160.3121","EPOCH":"2022-05-18T22:00:00.999936","ECCENTRICITY":"0.00031100","DECAY_DATE":null,"OBJECT_NAME":"STARLINK-3102","MEAN_MOTION_DDOT":"0.0000000000000","TLE_LINE2":"2 49151  69.9973 160.3121 0003110 277.9403 188.5855 15.01535887 39865","BSTAR":"0.00518760000000","INCLINATION":"69.9973","CLASSIFICATION_TYPE":"U","OBJECT_ID":"2021-082X","MEAN_ANOMALY":"188.5855","COUNTRY_CODE":"US","TLE_LINE1":"1 49151U 21082X   22138.91667824  .00067850  00000-0  51876-2 0  9997","PERIOD":"95.902","EPHEMERIS_TYPE":"0"}];
